{"fetched_at":"2026-03-30T09:12:31Z","count":15922,"tles":[{"name":"STARLINK-30571","line1":"1 58066U 23158R   26087.82216550  .00002000  00000+0  82192-4 0  9993","line2":"2 58066  43.0026 279.1911 0001458 264.9891  95.0794 15.27579573136497","category":"Starlink"}]}